STARLINK-35644          
1 66402U 25257Y   26068.64005810  .00011317  00000+0  39372-3 0  9994
2 66402  53.1577 217.4070 0000990  86.7928 273.3186 15.30192860 19710
2025-313BE              
1 67482U 25313BE  26068.69721505  .00077178  00000+0  26504-2 0  9996
2 67482  97.3989 145.3568 0007208 335.3714  24.7181 15.29801687  7972
